{"fetched_at":"2026-07-10T07:59:03.597Z","source":"https://celestrak.org/NORAD/elements/gp.php?NAME=HAWK&FORMAT=JSON","constellation":"hawkeye-360","records":[{"OBJECT_NAME":"HAWK-7B","OBJECT_ID":"2023-054R","EPOCH":"2026-07-09T17:04:04.700928","CLASSIFICATION_TYPE":"U","MEAN_MOTION":15.27594208,"ECCENTRICITY":0.0001944,"INCLINATION":97.2702,"RA_OF_ASC_NODE":75.7478,"ARG_OF_PERICENTER":26.8388,"MEAN_ANOMALY":333.2952,"EPHEMERIS_TYPE":0,"NORAD_CAT_ID":56193,"ELEMENT_SET_NO":999,"REV_AT_EPOCH":18046,"BSTAR":0.0001129,"MEAN_MOTION_DOT":0.00002974,"MEAN_MOTION_DDOT":0},{"OBJECT_NAME":"HAWK-7C","OBJECT_ID":"2023-054Y","EPOCH":"2026-07-09T13:55:15.768768","CLASSIFICATION_TYPE":"U","MEAN_MOTION":15.27596142,"ECCENTRICITY":0.0001571,"INCLINATION":97.2679,"RA_OF_ASC_NODE":76.3818,"ARG_OF_PERICENTER":13.0246,"MEAN_ANOMALY":347.1034,"EPHEMERIS_TYPE":0,"NORAD_CAT_ID":56200,"ELEMENT_SET_NO":999,"REV_AT_EPOCH":18044,"BSTAR":0.00014721,"MEAN_MOTION_DOT":0.000039,"MEAN_MOTION_DDOT":0},{"OBJECT_NAME":"HAWK-8A","OBJECT_ID":"2024-066B","EPOCH":"2026-07-09T07:13:47.372736","CLASSIFICATION_TYPE":"U","MEAN_MOTION":14.99275999,"ECCENTRICITY":0.00025275,"INCLINATION":45.5945,"RA_OF_ASC_NODE":162.2952,"ARG_OF_PERICENTER":194.4802,"MEAN_ANOMALY":165.6007,"EPHEMERIS_TYPE":0,"NORAD_CAT_ID":59443,"ELEMENT_SET_NO":999,"REV_AT_EPOCH":12315,"BSTAR":0.000090874566,"MEAN_MOTION_DOT":0.00000895,"MEAN_MOTION_DDOT":0},{"OBJECT_NAME":"HAWK-8B","OBJECT_ID":"2024-066D","EPOCH":"2026-07-09T00:50:38.487552","CLASSIFICATION_TYPE":"U","MEAN_MOTION":14.99277602,"ECCENTRICITY":0.00026518,"INCLINATION":45.6158,"RA_OF_ASC_NODE":165.6384,"ARG_OF_PERICENTER":194.6312,"MEAN_ANOMALY":165.4494,"EPHEMERIS_TYPE":0,"NORAD_CAT_ID":59445,"ELEMENT_SET_NO":999,"REV_AT_EPOCH":12310,"BSTAR":0.00036492224,"MEAN_MOTION_DOT":0.0000429,"MEAN_MOTION_DDOT":0},{"OBJECT_NAME":"HAWK-9A","OBJECT_ID":"2024-066E","EPOCH":"2026-07-09T02:59:03.641280","CLASSIFICATION_TYPE":"U","MEAN_MOTION":14.99203576,"ECCENTRICITY":0.00022172,"INCLINATION":45.6086,"RA_OF_ASC_NODE":163.8427,"ARG_OF_PERICENTER":177.1062,"MEAN_ANOMALY":182.9833,"EPHEMERIS_TYPE":0,"NORAD_CAT_ID":59446,"ELEMENT_SET_NO":999,"REV_AT_EPOCH":12312,"BSTAR":0.00010355421,"MEAN_MOTION_DOT":0.00001049,"MEAN_MOTION_DDOT":0},{"OBJECT_NAME":"HAWK-9C","OBJECT_ID":"2024-066G","EPOCH":"2026-07-09T06:11:21.868800","CLASSIFICATION_TYPE":"U","MEAN_MOTION":14.99207011,"ECCENTRICITY":0.00020465,"INCLINATION":45.6047,"RA_OF_ASC_NODE":162.2533,"ARG_OF_PERICENTER":157.4105,"MEAN_ANOMALY":202.6867,"EPHEMERIS_TYPE":0,"NORAD_CAT_ID":59448,"ELEMENT_SET_NO":999,"REV_AT_EPOCH":12314,"BSTAR":0.00010528615,"MEAN_MOTION_DOT":0.00001071,"MEAN_MOTION_DDOT":0},{"OBJECT_NAME":"HAWK-8C","OBJECT_ID":"2024-066H","EPOCH":"2026-07-09T07:13:42.561984","CLASSIFICATION_TYPE":"U","MEAN_MOTION":14.99280394,"ECCENTRICITY":0.00023507,"INCLINATION":45.6067,"RA_OF_ASC_NODE":163.2874,"ARG_OF_PERICENTER":206.0668,"MEAN_ANOMALY":154.0095,"EPHEMERIS_TYPE":0,"NORAD_CAT_ID":59449,"ELEMENT_SET_NO":999,"REV_AT_EPOCH":12314,"BSTAR":0.00012859152,"MEAN_MOTION_DOT":0.00001362,"MEAN_MOTION_DDOT":0},{"OBJECT_NAME":"HAWK-9B","OBJECT_ID":"2024-066J","EPOCH":"2026-07-09T02:59:29.011776","CLASSIFICATION_TYPE":"U","MEAN_MOTION":14.99204694,"ECCENTRICITY":0.00022341,"INCLINATION":45.6129,"RA_OF_ASC_NODE":164.7765,"ARG_OF_PERICENTER":150.644,"MEAN_ANOMALY":209.4567,"EPHEMERIS_TYPE":0,"NORAD_CAT_ID":59450,"ELEMENT_SET_NO":999,"REV_AT_EPOCH":12312,"BSTAR":0.00010590405,"MEAN_MOTION_DOT":0.00001078,"MEAN_MOTION_DDOT":0},{"OBJECT_NAME":"HAWK-10A","OBJECT_ID":"2024-149CA","EPOCH":"2026-07-08T21:35:41.998560","CLASSIFICATION_TYPE":"U","MEAN_MOTION":14.96582101,"ECCENTRICITY":0.00036849,"INCLINATION":97.6892,"RA_OF_ASC_NODE":265.4382,"ARG_OF_PERICENTER":27.8367,"MEAN_ANOMALY":332.3051,"EPHEMERIS_TYPE":0,"NORAD_CAT_ID":60540,"ELEMENT_SET_NO":999,"REV_AT_EPOCH":10323,"BSTAR":0.00013531937,"MEAN_MOTION_DOT":0.00001483,"MEAN_MOTION_DDOT":0},{"OBJECT_NAME":"HAWK-10B","OBJECT_ID":"2024-149CF","EPOCH":"2026-07-09T04:00:36.830016","CLASSIFICATION_TYPE":"U","MEAN_MOTION":14.96582889,"ECCENTRICITY":0.00060231,"INCLINATION":97.6812,"RA_OF_ASC_NODE":265.0338,"ARG_OF_PERICENTER":35.8014,"MEAN_ANOMALY":324.3611,"EPHEMERIS_TYPE":0,"NORAD_CAT_ID":60545,"ELEMENT_SET_NO":999,"REV_AT_EPOCH":10327,"BSTAR":0.00012768597,"MEAN_MOTION_DOT":0.00001397,"MEAN_MOTION_DDOT":0},{"OBJECT_NAME":"HAWK-10C","OBJECT_ID":"2024-149DM","EPOCH":"2026-07-09T04:01:05.308320","CLASSIFICATION_TYPE":"U","MEAN_MOTION":14.96582455,"ECCENTRICITY":0.00032099,"INCLINATION":97.6731,"RA_OF_ASC_NODE":264.3505,"ARG_OF_PERICENTER":16.4684,"MEAN_ANOMALY":343.6641,"EPHEMERIS_TYPE":0,"NORAD_CAT_ID":60575,"ELEMENT_SET_NO":999,"REV_AT_EPOCH":10327,"BSTAR":0.00011639849,"MEAN_MOTION_DOT":0.00001268,"MEAN_MOTION_DDOT":0},{"OBJECT_NAME":"HAWK-11B","OBJECT_ID":"2024-247C","EPOCH":"2026-07-09T14:57:07.718400","CLASSIFICATION_TYPE":"U","MEAN_MOTION":15.3061577,"ECCENTRICITY":0.0003829,"INCLINATION":45.0132,"RA_OF_ASC_NODE":166.7326,"ARG_OF_PERICENTER":350.0101,"MEAN_ANOMALY":10.0707,"EPHEMERIS_TYPE":0,"NORAD_CAT_ID":62379,"ELEMENT_SET_NO":999,"REV_AT_EPOCH":8644,"BSTAR":0.00016428,"MEAN_MOTION_DOT":0.00004652,"MEAN_MOTION_DDOT":0},{"OBJECT_NAME":"HAWK-11C","OBJECT_ID":"2024-247E","EPOCH":"2026-07-09T14:56:27.860352","CLASSIFICATION_TYPE":"U","MEAN_MOTION":15.3061324,"ECCENTRICITY":0.0004745,"INCLINATION":45.0015,"RA_OF_ASC_NODE":166.0719,"ARG_OF_PERICENTER":340.0518,"MEAN_ANOMALY":20.018,"EPHEMERIS_TYPE":0,"NORAD_CAT_ID":62381,"ELEMENT_SET_NO":999,"REV_AT_EPOCH":8644,"BSTAR":0.00016086,"MEAN_MOTION_DOT":0.00004549,"MEAN_MOTION_DDOT":0},{"OBJECT_NAME":"HAWK-11A","OBJECT_ID":"2024-247F","EPOCH":"2026-07-09T14:56:34.871712","CLASSIFICATION_TYPE":"U","MEAN_MOTION":15.30614319,"ECCENTRICITY":0.0004252,"INCLINATION":44.9913,"RA_OF_ASC_NODE":165.4054,"ARG_OF_PERICENTER":339.3283,"MEAN_ANOMALY":20.7429,"EPHEMERIS_TYPE":0,"NORAD_CAT_ID":62382,"ELEMENT_SET_NO":999,"REV_AT_EPOCH":8644,"BSTAR":0.00016382,"MEAN_MOTION_DOT":0.00004638,"MEAN_MOTION_DDOT":0},{"OBJECT_NAME":"HAWK-12C","OBJECT_ID":"2025-138A","EPOCH":"2026-07-08T23:44:11.782464","CLASSIFICATION_TYPE":"U","MEAN_MOTION":15.18374063,"ECCENTRICITY":0.00156817,"INCLINATION":97.435,"RA_OF_ASC_NODE":192.0643,"ARG_OF_PERICENTER":70.7079,"MEAN_ANOMALY":289.5849,"EPHEMERIS_TYPE":0,"NORAD_CAT_ID":64621,"ELEMENT_SET_NO":999,"REV_AT_EPOCH":5717,"BSTAR":0.00012206019,"MEAN_MOTION_DOT":0.00002448,"MEAN_MOTION_DDOT":0},{"OBJECT_NAME":"HAWK-12B","OBJECT_ID":"2025-138B","EPOCH":"2026-07-08T22:09:32.810688","CLASSIFICATION_TYPE":"U","MEAN_MOTION":15.1837309,"ECCENTRICITY":0.001459,"INCLINATION":97.4474,"RA_OF_ASC_NODE":192.6829,"ARG_OF_PERICENTER":66.8008,"MEAN_ANOMALY":293.4761,"EPHEMERIS_TYPE":0,"NORAD_CAT_ID":64622,"ELEMENT_SET_NO":999,"REV_AT_EPOCH":5716,"BSTAR":0.0001216762,"MEAN_MOTION_DOT":0.00002438,"MEAN_MOTION_DDOT":0}]}
