HAWK-7B                 
1 56193U 23054R   26190.71116552  .00002974  00000+0  11290-3 0  9991
2 56193  97.2702  75.7478 0001944  26.8388 333.2952 15.27594208180463
HAWK-7C                 
1 56200U 23054Y   26190.58004362  .00003900  00000+0  14721-3 0  9992
2 56200  97.2679  76.3818 0001571  13.0246 347.1034 15.27596142180449
HAWK-8A                 
1 59443U 24066B   26190.30124274  .00000895  00000+0  90875-4 0  9998
2 59443  45.5945 162.2952 0002527 194.4802 165.6007 14.99275999123151
HAWK-8B                 
1 59445U 24066D   26190.03516768  .00004290  00000+0  36492-3 0  9990
2 59445  45.6158 165.6384 0002651 194.6312 165.4494 14.99277602123108
HAWK-9A                 
1 59446U 24066E   26190.12434770  .00001049  00000+0  10355-3 0  9992
2 59446  45.6086 163.8427 0002217 177.1062 182.9833 14.99203576123125
HAWK-9C                 
1 59448U 24066G   26190.25789200  .00001071  00000+0  10529-3 0  9997
2 59448  45.6047 162.2533 0002046 157.4105 202.6867 14.99207011123141
HAWK-8C                 
1 59449U 24066H   26190.30118706  .00001362  00000+0  12859-3 0  9992
2 59449  45.6067 163.2874 0002350 206.0668 154.0095 14.99280394123144
HAWK-9B                 
1 59450U 24066J   26190.12464134  .00001078  00000+0  10590-3 0  9997
2 59450  45.6129 164.7765 0002234 150.6440 209.4567 14.99204694123129
HAWK-10A                
1 60540U 24149CA  26189.89979165  .00001483  00000+0  13532-3 0  9997
2 60540  97.6892 265.4382 0003684  27.8367 332.3051 14.96582101103235
HAWK-10B                
1 60545U 24149CF  26190.16709294  .00001397  00000+0  12769-3 0  9993
2 60545  97.6812 265.0338 0006023  35.8014 324.3611 14.96582889103277
HAWK-10C                
1 60575U 24149DM  26190.16742255  .00001268  00000+0  11640-3 0  9994
2 60575  97.6731 264.3505 0003209  16.4684 343.6641 14.96582455103275
HAWK-11B                
1 62379U 24247C   26190.62300600  .00004652  00000+0  16428-3 0  9991
2 62379  45.0132 166.7326 0003829 350.0101  10.0707 15.30615770 86449
HAWK-11C                
1 62381U 24247E   26190.62254468  .00004549  00000+0  16086-3 0  9999
2 62381  45.0015 166.0719 0004745 340.0518  20.0180 15.30613240 86446
HAWK-11A                
1 62382U 24247F   26190.62262583  .00004638  00000+0  16382-3 0  9995
2 62382  44.9913 165.4054 0004252 339.3283  20.7429 15.30614319 86441
HAWK-12C                
1 64621U 25138A   26189.98902526  .00002448  00000+0  12206-3 0  9996
2 64621  97.4350 192.0643 0015681  70.7079 289.5849 15.18374063 57178
HAWK-12B                
1 64622U 25138B   26189.92329642  .00002438  00000+0  12168-3 0  9999
2 64622  97.4474 192.6829 0014590  66.8008 293.4761 15.18373090 57169
